QIANFAN-35              
1 61568U 24185S   26074.26014150  .00000931  00000+0  36880-3 0  9994
2 61568  88.9754  65.9952 0006252   4.2667 355.8580 14.28139641 83380
QIANFAN-36              
1 61569U 24185T   26074.22804639  .00000100  00000+0  12665-3 0  9993
2 61569  88.9723  71.3890 0007704 123.1139 237.0756 13.55615694 80454
QIANFAN-37              
1 62238U 24232B   26074.27601335  .00000097  00000+0  13093-3 0  9994
2 62238  89.0068  31.9875 0002047  97.5133 262.6250 13.51006942111667
QIANFAN-38              
1 62239U 24232C   26074.22658799  .00000080  00000+0  10536-3 0  9997
2 62239  89.0075  31.9146 0012679 292.9001  67.0811 13.51005483111719
QIANFAN-39              
1 62240U 24232D   26074.22763554  .00000486  00000+0  19937-3 0  9999
2 62240  89.0072  26.7346 0017713 129.4321 230.8443 14.25446163114568
QIANFAN-40              
1 62241U 24232E   26074.25950742  .00000087  00000+0  11637-3 0  9996
2 62241  89.0103  31.5218 0011906 302.3530  57.6468 13.51004835112089
QIANFAN-41              
1 62242U 24232F   26074.26776951  .00000092  00000+0  12384-3 0  9992
2 62242  89.0073  31.8605 0012026 288.4201  71.5642 13.51006422111747
QIANFAN-42              
1 62243U 24232G   26074.21424377  .00000444  00000+0  18519-3 0  9997
2 62243  89.0070  26.7970 0016369 134.7338 225.5190 14.24539439114530
QIANFAN-43              
1 62244U 24232H   26074.26361084  .00000091  00000+0  12242-3 0  9993
2 62244  89.0077  31.9302 0013641 293.9064  66.0658 13.51006424 80350
QIANFAN-44              
1 62245U 24232J   26074.25129279  .00000082  00000+0  10815-3 0  9995
2 62245  89.0076  31.7408 0011809 291.2172  68.7717 13.51004366111825
QIANFAN-45              
1 62246U 24232K   26074.21838390  .00000094  00000+0  12785-3 0  9994
2 62246  89.0079  31.8938 0012459 290.6432  69.3383 13.51008227111749
QIANFAN-46              
1 62247U 24232L   26074.24304330  .00000102  00000+0  13988-3 0  9996
2 62247  89.0075  31.9565 0012626 296.8390  63.1470 13.51005003111704
QIANFAN-47              
1 62248U 24232M   26074.24715580  .00000086  00000+0  11489-3 0  9995
2 62248  89.0071  31.8854 0013038 295.7073  64.2731 13.51004845111733
QIANFAN-48              
1 62249U 24232N   26074.21012932  .00000084  00000+0  11155-3 0  9992
2 62249  89.0075  31.8946 0015344 298.0261  61.9337 13.51004912111738
QIANFAN-49              
1 62250U 24232P   26074.27186148  .00000096  00000+0  12988-3 0  9999
2 62250  89.0074  31.9002 0012311 292.6612  67.3237 13.51004162 80331
QIANFAN-50              
1 62251U 24232Q   26074.22246548  .00000087  00000+0  11660-3 0  9992
2 62251  89.0080  31.9183 0013990 293.8243  66.1441 13.51005146 80355
QIANFAN-51              
1 62252U 24232R   26074.28009776  .00000098  00000+0  13314-3 0  9999
2 62252  89.0074  31.9007 0011570 298.8137  61.1852 13.51005852 80358
