[{"OBJECT_NAME":"QIANFAN-35","OBJECT_ID":"2024-185S","EPOCH":"2026-03-15T06:14:36.225600","MEAN_MOTION":14.28139641,"ECCENTRICITY":0.00062526,"INCLINATION":88.9754,"RA_OF_ASC_NODE":65.9952,"ARG_OF_PERICENTER":4.2667,"MEAN_ANOMALY":355.858,"EPHEMERIS_TYPE":0,"CLASSIFICATION_TYPE":"U","NORAD_CAT_ID":61568,"ELEMENT_SET_NO":999,"REV_AT_EPOCH":8338,"BSTAR":0.00036880133,"MEAN_MOTION_DOT":9.31e-6,"MEAN_MOTION_DDOT":0},{"OBJECT_NAME":"QIANFAN-36","OBJECT_ID":"2024-185T","EPOCH":"2026-03-15T05:28:23.208096","MEAN_MOTION":13.55615694,"ECCENTRICITY":0.00077047,"INCLINATION":88.9723,"RA_OF_ASC_NODE":71.389,"ARG_OF_PERICENTER":123.1139,"MEAN_ANOMALY":237.0756,"EPHEMERIS_TYPE":0,"CLASSIFICATION_TYPE":"U","NORAD_CAT_ID":61569,"ELEMENT_SET_NO":999,"REV_AT_EPOCH":8045,"BSTAR":0.00012665146,"MEAN_MOTION_DOT":1.0e-6,"MEAN_MOTION_DDOT":0},{"OBJECT_NAME":"QIANFAN-37","OBJECT_ID":"2024-232B","EPOCH":"2026-03-15T06:37:27.553440","MEAN_MOTION":13.51006942,"ECCENTRICITY":0.00020474,"INCLINATION":89.0068,"RA_OF_ASC_NODE":31.9875,"ARG_OF_PERICENTER":97.5133,"MEAN_ANOMALY":262.625,"EPHEMERIS_TYPE":0,"CLASSIFICATION_TYPE":"U","NORAD_CAT_ID":62238,"ELEMENT_SET_NO":999,"REV_AT_EPOCH":11166,"BSTAR":0.00013092705,"MEAN_MOTION_DOT":9.7e-7,"MEAN_MOTION_DDOT":0},{"OBJECT_NAME":"QIANFAN-38","OBJECT_ID":"2024-232C","EPOCH":"2026-03-15T05:26:17.202336","MEAN_MOTION":13.51005483,"ECCENTRICITY":0.0012679,"INCLINATION":89.0075,"RA_OF_ASC_NODE":31.9146,"ARG_OF_PERICENTER":292.9001,"MEAN_ANOMALY":67.0811,"EPHEMERIS_TYPE":0,"CLASSIFICATION_TYPE":"U","NORAD_CAT_ID":62239,"ELEMENT_SET_NO":999,"REV_AT_EPOCH":11171,"BSTAR":0.00010536439,"MEAN_MOTION_DOT":8.0e-7,"MEAN_MOTION_DDOT":0},{"OBJECT_NAME":"QIANFAN-39","OBJECT_ID":"2024-232D","EPOCH":"2026-03-15T05:27:47.710656","MEAN_MOTION":14.25446163,"ECCENTRICITY":0.00177133,"INCLINATION":89.0072,"RA_OF_ASC_NODE":26.7346,"ARG_OF_PERICENTER":129.4321,"MEAN_ANOMALY":230.8443,"EPHEMERIS_TYPE":0,"CLASSIFICATION_TYPE":"U","NORAD_CAT_ID":62240,"ELEMENT_SET_NO":999,"REV_AT_EPOCH":11456,"BSTAR":0.00019936666,"MEAN_MOTION_DOT":4.86e-6,"MEAN_MOTION_DDOT":0},{"OBJECT_NAME":"QIANFAN-40","OBJECT_ID":"2024-232E","EPOCH":"2026-03-15T06:13:41.441088","MEAN_MOTION":13.51004835,"ECCENTRICITY":0.0011906,"INCLINATION":89.0103,"RA_OF_ASC_NODE":31.5218,"ARG_OF_PERICENTER":302.353,"MEAN_ANOMALY":57.6468,"EPHEMERIS_TYPE":0,"CLASSIFICATION_TYPE":"U","NORAD_CAT_ID":62241,"ELEMENT_SET_NO":999,"REV_AT_EPOCH":11208,"BSTAR":0.00011637233,"MEAN_MOTION_DOT":8.7e-7,"MEAN_MOTION_DDOT":0},{"OBJECT_NAME":"QIANFAN-41","OBJECT_ID":"2024-232F","EPOCH":"2026-03-15T06:25:35.285664","MEAN_MOTION":13.51006422,"ECCENTRICITY":0.00120265,"INCLINATION":89.0073,"RA_OF_ASC_NODE":31.8605,"ARG_OF_PERICENTER":288.4201,"MEAN_ANOMALY":71.5642,"EPHEMERIS_TYPE":0,"CLASSIFICATION_TYPE":"U","NORAD_CAT_ID":62242,"ELEMENT_SET_NO":999,"REV_AT_EPOCH":11174,"BSTAR":0.00012383883,"MEAN_MOTION_DOT":9.2e-7,"MEAN_MOTION_DDOT":0},{"OBJECT_NAME":"QIANFAN-42","OBJECT_ID":"2024-232G","EPOCH":"2026-03-15T05:08:30.661728","MEAN_MOTION":14.24539439,"ECCENTRICITY":0.00163693,"INCLINATION":89.007,"RA_OF_ASC_NODE":26.797,"ARG_OF_PERICENTER":134.7338,"MEAN_ANOMALY":225.519,"EPHEMERIS_TYPE":0,"CLASSIFICATION_TYPE":"U","NORAD_CAT_ID":62243,"ELEMENT_SET_NO":999,"REV_AT_EPOCH":11453,"BSTAR":0.0001851871,"MEAN_MOTION_DOT":4.44e-6,"MEAN_MOTION_DDOT":0},{"OBJECT_NAME":"QIANFAN-43","OBJECT_ID":"2024-232H","EPOCH":"2026-03-15T06:19:35.976576","MEAN_MOTION":13.51006424,"ECCENTRICITY":0.00136417,"INCLINATION":89.0077,"RA_OF_ASC_NODE":31.9302,"ARG_OF_PERICENTER":293.9064,"MEAN_ANOMALY":66.0658,"EPHEMERIS_TYPE":0,"CLASSIFICATION_TYPE":"U","NORAD_CAT_ID":62244,"ELEMENT_SET_NO":999,"REV_AT_EPOCH":8035,"BSTAR":0.00012241619,"MEAN_MOTION_DOT":9.1e-7,"MEAN_MOTION_DDOT":0},{"OBJECT_NAME":"QIANFAN-44","OBJECT_ID":"2024-232J","EPOCH":"2026-03-15T06:01:51.697056","MEAN_MOTION":13.51004366,"ECCENTRICITY":0.0011809,"INCLINATION":89.0076,"RA_OF_ASC_NODE":31.7408,"ARG_OF_PERICENTER":291.2172,"MEAN_ANOMALY":68.7717,"EPHEMERIS_TYPE":0,"CLASSIFICATION_TYPE":"U","NORAD_CAT_ID":62245,"ELEMENT_SET_NO":999,"REV_AT_EPOCH":11182,"BSTAR":0.00010815397,"MEAN_MOTION_DOT":8.2e-7,"MEAN_MOTION_DDOT":0},{"OBJECT_NAME":"QIANFAN-45","OBJECT_ID":"2024-232K","EPOCH":"2026-03-15T05:14:28.368960","MEAN_MOTION":13.51008227,"ECCENTRICITY":0.00124593,"INCLINATION":89.0079,"RA_OF_ASC_NODE":31.8938,"ARG_OF_PERICENTER":290.6432,"MEAN_ANOMALY":69.3383,"EPHEMERIS_TYPE":0,"CLASSIFICATION_TYPE":"U","NORAD_CAT_ID":62246,"ELEMENT_SET_NO":999,"REV_AT_EPOCH":11174,"BSTAR":0.00012784616,"MEAN_MOTION_DOT":9.4e-7,"MEAN_MOTION_DDOT":0},{"OBJECT_NAME":"QIANFAN-46","OBJECT_ID":"2024-232L","EPOCH":"2026-03-15T05:49:58.941120","MEAN_MOTION":13.51005003,"ECCENTRICITY":0.00126264,"INCLINATION":89.0075,"RA_OF_ASC_NODE":31.9565,"ARG_OF_PERICENTER":296.839,"MEAN_ANOMALY":63.147,"EPHEMERIS_TYPE":0,"CLASSIFICATION_TYPE":"U","NORAD_CAT_ID":62247,"ELEMENT_SET_NO":999,"REV_AT_EPOCH":11170,"BSTAR":0.00013988022,"MEAN_MOTION_DOT":1.02e-6,"MEAN_MOTION_DDOT":0},{"OBJECT_NAME":"QIANFAN-47","OBJECT_ID":"2024-232M","EPOCH":"2026-03-15T05:55:54.261120","MEAN_MOTION":13.51004845,"ECCENTRICITY":0.00130384,"INCLINATION":89.0071,"RA_OF_ASC_NODE":31.8854,"ARG_OF_PERICENTER":295.7073,"MEAN_ANOMALY":64.2731,"EPHEMERIS_TYPE":0,"CLASSIFICATION_TYPE":"U","NORAD_CAT_ID":62248,"ELEMENT_SET_NO":999,"REV_AT_EPOCH":11173,"BSTAR":0.00011488969,"MEAN_MOTION_DOT":8.6e-7,"MEAN_MOTION_DDOT":0},{"OBJECT_NAME":"QIANFAN-48","OBJECT_ID":"2024-232N","EPOCH":"2026-03-15T05:02:35.173248","MEAN_MOTION":13.51004912,"ECCENTRICITY":0.00153445,"INCLINATION":89.0075,"RA_OF_ASC_NODE":31.8946,"ARG_OF_PERICENTER":298.0261,"MEAN_ANOMALY":61.9337,"EPHEMERIS_TYPE":0,"CLASSIFICATION_TYPE":"U","NORAD_CAT_ID":62249,"ELEMENT_SET_NO":999,"REV_AT_EPOCH":11173,"BSTAR":0.00011155272,"MEAN_MOTION_DOT":8.4e-7,"MEAN_MOTION_DDOT":0},{"OBJECT_NAME":"QIANFAN-49","OBJECT_ID":"2024-232P","EPOCH":"2026-03-15T06:31:28.831872","MEAN_MOTION":13.51004162,"ECCENTRICITY":0.00123112,"INCLINATION":89.0074,"RA_OF_ASC_NODE":31.9002,"ARG_OF_PERICENTER":292.6612,"MEAN_ANOMALY":67.3237,"EPHEMERIS_TYPE":0,"CLASSIFICATION_TYPE":"U","NORAD_CAT_ID":62250,"ELEMENT_SET_NO":999,"REV_AT_EPOCH":8033,"BSTAR":0.00012987981,"MEAN_MOTION_DOT":9.6e-7,"MEAN_MOTION_DDOT":0},{"OBJECT_NAME":"QIANFAN-50","OBJECT_ID":"2024-232Q","EPOCH":"2026-03-15T05:20:21.017472","MEAN_MOTION":13.51005146,"ECCENTRICITY":0.00139902,"INCLINATION":89.008,"RA_OF_ASC_NODE":31.9183,"ARG_OF_PERICENTER":293.8243,"MEAN_ANOMALY":66.1441,"EPHEMERIS_TYPE":0,"CLASSIFICATION_TYPE":"U","NORAD_CAT_ID":62251,"ELEMENT_SET_NO":999,"REV_AT_EPOCH":8035,"BSTAR":0.00011659863,"MEAN_MOTION_DOT":8.7e-7,"MEAN_MOTION_DDOT":0},{"OBJECT_NAME":"QIANFAN-51","OBJECT_ID":"2024-232R","EPOCH":"2026-03-15T06:43:20.446464","MEAN_MOTION":13.51005852,"ECCENTRICITY":0.00115709,"INCLINATION":89.0074,"RA_OF_ASC_NODE":31.9007,"ARG_OF_PERICENTER":298.8137,"MEAN_ANOMALY":61.1852,"EPHEMERIS_TYPE":0,"CLASSIFICATION_TYPE":"U","NORAD_CAT_ID":62252,"ELEMENT_SET_NO":999,"REV_AT_EPOCH":8035,"BSTAR":0.0001331394,"MEAN_MOTION_DOT":9.8e-7,"MEAN_MOTION_DDOT":0}]
